CCSDS_OMM_VERS = 2.0
CREATION_DATE  = 
ORIGINATOR     = 

OBJECT_NAME    = 2025-313AG
OBJECT_ID      = 2025-313AG
CENTER_NAME    = EARTH
REF_FRAME      = TEME
TIME_SYSTEM    = UTC
MEAN_ELEMENT_THEORY = SGP/SGP4

EPOCH          = 2026-01-27T13:27:13.036320
MEAN_MOTION    = 15.20507419
ECCENTRICITY   = .00151282
INCLINATION    = 97.4067
RA_OF_ASC_NODE = 104.5049
ARG_OF_PERICENTER = 137.1786
MEAN_ANOMALY   = 223.0631

EPHEMERIS_TYPE = 0
CLASSIFICATION_TYPE = U
NORAD_CAT_ID   = 67278
ELEMENT_SET_NO = 999
REV_AT_EPOCH   = 457
BSTAR          = .53580084E-3
MEAN_MOTION_DOT = .11687E-3
MEAN_MOTION_DDOT = 0

CCSDS_OMM_VERS = 2.0
CREATION_DATE  = 
ORIGINATOR     = 

OBJECT_NAME    = GALAPAGOS-UTE-SWSU
OBJECT_ID      = 2025-313AH
CENTER_NAME    = EARTH
REF_FRAME      = TEME
TIME_SYSTEM    = UTC
MEAN_ELEMENT_THEORY = SGP/SGP4

EPOCH          = 2026-01-27T13:25:26.309856
MEAN_MOTION    = 15.20582623
ECCENTRICITY   = .0015793
INCLINATION    = 97.4078
RA_OF_ASC_NODE = 104.5106
ARG_OF_PERICENTER = 134.0668
MEAN_ANOMALY   = 226.1871

EPHEMERIS_TYPE = 0
CLASSIFICATION_TYPE = U
NORAD_CAT_ID   = 67279
ELEMENT_SET_NO = 999
REV_AT_EPOCH   = 456
BSTAR          = .59695874E-3
MEAN_MOTION_DOT = .13064E-3
MEAN_MOTION_DDOT = 0

CCSDS_OMM_VERS = 2.0
CREATION_DATE  = 
ORIGINATOR     = 

OBJECT_NAME    = 2025-313AJ
OBJECT_ID      = 2025-313AJ
CENTER_NAME    = EARTH
REF_FRAME      = TEME
TIME_SYSTEM    = UTC
MEAN_ELEMENT_THEORY = SGP/SGP4

EPOCH          = 2026-01-27T13:16:45.691968
MEAN_MOTION    = 15.20800011
ECCENTRICITY   = .00147885
INCLINATION    = 97.4150
RA_OF_ASC_NODE = 104.5338
ARG_OF_PERICENTER = 130.9721
MEAN_ANOMALY   = 229.2797

EPHEMERIS_TYPE = 0
CLASSIFICATION_TYPE = U
NORAD_CAT_ID   = 67280
ELEMENT_SET_NO = 999
REV_AT_EPOCH   = 456
BSTAR          = .45264555E-3
MEAN_MOTION_DOT = .9944E-4
MEAN_MOTION_DDOT = 0

CCSDS_OMM_VERS = 2.0
CREATION_DATE  = 
ORIGINATOR     = 

OBJECT_NAME    = 2025-313AK
OBJECT_ID      = 2025-313AK
CENTER_NAME    = EARTH
REF_FRAME      = TEME
TIME_SYSTEM    = UTC
MEAN_ELEMENT_THEORY = SGP/SGP4

EPOCH          = 2026-01-27T13:14:10.343904
MEAN_MOTION    = 15.20892698
ECCENTRICITY   = .00135009
INCLINATION    = 97.4034
RA_OF_ASC_NODE = 104.5012
ARG_OF_PERICENTER = 130.0335
MEAN_ANOMALY   = 230.2087

EPHEMERIS_TYPE = 0
CLASSIFICATION_TYPE = U
NORAD_CAT_ID   = 67281
ELEMENT_SET_NO = 999
REV_AT_EPOCH   = 456
BSTAR          = .44088408E-3
MEAN_MOTION_DOT = .9705E-4
MEAN_MOTION_DDOT = 0

CCSDS_OMM_VERS = 2.0
CREATION_DATE  = 
ORIGINATOR     = 

OBJECT_NAME    = 2025-313AL
OBJECT_ID      = 2025-313AL
CENTER_NAME    = EARTH
REF_FRAME      = TEME
TIME_SYSTEM    = UTC
MEAN_ELEMENT_THEORY = SGP/SGP4

EPOCH          = 2026-01-27T08:19:28.864704
MEAN_MOTION    = 15.21275769
ECCENTRICITY   = .00122816
INCLINATION    = 97.4083
RA_OF_ASC_NODE = 104.3238
ARG_OF_PERICENTER = 129.7725
MEAN_ANOMALY   = 230.4594

EPHEMERIS_TYPE = 0
CLASSIFICATION_TYPE = U
NORAD_CAT_ID   = 67282
ELEMENT_SET_NO = 999
REV_AT_EPOCH   = 453
BSTAR          = .48299276E-3
MEAN_MOTION_DOT = .10756E-3
MEAN_MOTION_DDOT = 0

CCSDS_OMM_VERS = 2.0
CREATION_DATE  = 
ORIGINATOR     = 

OBJECT_NAME    = HORS 5
OBJECT_ID      = 2025-313AM
CENTER_NAME    = EARTH
REF_FRAME      = TEME
TIME_SYSTEM    = UTC
MEAN_ELEMENT_THEORY = SGP/SGP4

EPOCH          = 2026-01-27T14:34:59.949984
MEAN_MOTION    = 15.21527296
ECCENTRICITY   = .00120678
INCLINATION    = 97.4091
RA_OF_ASC_NODE = 104.5892
ARG_OF_PERICENTER = 128.7262
MEAN_ANOMALY   = 231.5055

EPHEMERIS_TYPE = 0
CLASSIFICATION_TYPE = U
NORAD_CAT_ID   = 67283
ELEMENT_SET_NO = 999
REV_AT_EPOCH   = 457
BSTAR          = .64682411E-3
MEAN_MOTION_DOT = .14541E-3
MEAN_MOTION_DDOT = 0

CCSDS_OMM_VERS = 2.0
CREATION_DATE  = 
ORIGINATOR     = 

OBJECT_NAME    = LOBACHEVSKY (RS83S)
OBJECT_ID      = 2025-313AN
CENTER_NAME    = EARTH
REF_FRAME      = TEME
TIME_SYSTEM    = UTC
MEAN_ELEMENT_THEORY = SGP/SGP4

EPOCH          = 2026-01-27T14:39:27.491040
MEAN_MOTION    = 15.21186243
ECCENTRICITY   = .00121849
INCLINATION    = 97.4076
RA_OF_ASC_NODE = 104.5788
ARG_OF_PERICENTER = 128.8404
MEAN_ANOMALY   = 231.3921

EPHEMERIS_TYPE = 0
CLASSIFICATION_TYPE = U
NORAD_CAT_ID   = 67284
ELEMENT_SET_NO = 999
REV_AT_EPOCH   = 457
BSTAR          = .43608322E-3
MEAN_MOTION_DOT = .9677E-4
MEAN_MOTION_DDOT = 0

CCSDS_OMM_VERS = 2.0
CREATION_DATE  = 
ORIGINATOR     = 

OBJECT_NAME    = NASBSAT-2
OBJECT_ID      = 2025-313AP
CENTER_NAME    = EARTH
REF_FRAME      = TEME
TIME_SYSTEM    = UTC
MEAN_ELEMENT_THEORY = SGP/SGP4

EPOCH          = 2026-01-27T14:33:15.266016
MEAN_MOTION    = 15.21559387
ECCENTRICITY   = .00117086
INCLINATION    = 97.4068
RA_OF_ASC_NODE = 104.5811
ARG_OF_PERICENTER = 130.0598
MEAN_ANOMALY   = 230.1667

EPHEMERIS_TYPE = 0
CLASSIFICATION_TYPE = U
NORAD_CAT_ID   = 67285
ELEMENT_SET_NO = 999
REV_AT_EPOCH   = 457
BSTAR          = .55974063E-3
MEAN_MOTION_DOT = .12581E-3
MEAN_MOTION_DDOT = 0

CCSDS_OMM_VERS = 2.0
CREATION_DATE  = 
ORIGINATOR     = 

OBJECT_NAME    = MULE 4T
OBJECT_ID      = 2025-313AQ
CENTER_NAME    = EARTH
REF_FRAME      = TEME
TIME_SYSTEM    = UTC
MEAN_ELEMENT_THEORY = SGP/SGP4

EPOCH          = 2026-01-27T14:32:24.540576
MEAN_MOTION    = 15.21582203
ECCENTRICITY   = .0011346
INCLINATION    = 97.4089
RA_OF_ASC_NODE = 104.5987
ARG_OF_PERICENTER = 125.4151
MEAN_ANOMALY   = 234.8146

EPHEMERIS_TYPE = 0
CLASSIFICATION_TYPE = U
NORAD_CAT_ID   = 67286
ELEMENT_SET_NO = 999
REV_AT_EPOCH   = 457
BSTAR          = .67307753E-3
MEAN_MOTION_DOT = .15156E-3
MEAN_MOTION_DDOT = 0

CCSDS_OMM_VERS = 2.0
CREATION_DATE  = 
ORIGINATOR     = 

OBJECT_NAME    = LUCA (RS90S)
OBJECT_ID      = 2025-313AR
CENTER_NAME    = EARTH
REF_FRAME      = TEME
TIME_SYSTEM    = UTC
MEAN_ELEMENT_THEORY = SGP/SGP4

EPOCH          = 2026-01-27T14:29:56.781888
MEAN_MOTION    = 15.21730147
ECCENTRICITY   = .00112483
INCLINATION    = 97.4088
RA_OF_ASC_NODE = 104.6015
ARG_OF_PERICENTER = 127.1375
MEAN_ANOMALY   = 233.0890

EPHEMERIS_TYPE = 0
CLASSIFICATION_TYPE = U
NORAD_CAT_ID   = 67287
ELEMENT_SET_NO = 999
REV_AT_EPOCH   = 457
BSTAR          = .67109495E-3
MEAN_MOTION_DOT = .15177E-3
MEAN_MOTION_DDOT = 0

CCSDS_OMM_VERS = 2.0
CREATION_DATE  = 
ORIGINATOR     = 

OBJECT_NAME    = 2025-313AS
OBJECT_ID      = 2025-313AS
CENTER_NAME    = EARTH
REF_FRAME      = TEME
TIME_SYSTEM    = UTC
MEAN_ELEMENT_THEORY = SGP/SGP4

EPOCH          = 2026-01-27T14:33:32.794848
MEAN_MOTION    = 15.21447922
ECCENTRICITY   = .00131442
INCLINATION    = 97.4079
RA_OF_ASC_NODE = 104.5925
ARG_OF_PERICENTER = 120.1862
MEAN_ANOMALY   = 240.0678

EPHEMERIS_TYPE = 0
CLASSIFICATION_TYPE = U
NORAD_CAT_ID   = 67288
ELEMENT_SET_NO = 999
REV_AT_EPOCH   = 457
BSTAR          = .43289597E-3
MEAN_MOTION_DOT = .9683E-4
MEAN_MOTION_DDOT = 0

CCSDS_OMM_VERS = 2.0
CREATION_DATE  = 
ORIGINATOR     = 

OBJECT_NAME    = NASBSAT-1
OBJECT_ID      = 2025-313AT
CENTER_NAME    = EARTH
REF_FRAME      = TEME
TIME_SYSTEM    = UTC
MEAN_ELEMENT_THEORY = SGP/SGP4

EPOCH          = 2026-01-27T14:25:50.393280
MEAN_MOTION    = 15.22030782
ECCENTRICITY   = .00110431
INCLINATION    = 97.4090
RA_OF_ASC_NODE = 104.6058
ARG_OF_PERICENTER = 127.5366
MEAN_ANOMALY   = 232.6875

EPHEMERIS_TYPE = 0
CLASSIFICATION_TYPE = U
NORAD_CAT_ID   = 67289
ELEMENT_SET_NO = 999
REV_AT_EPOCH   = 457
BSTAR          = .89052728E-3
MEAN_MOTION_DOT = .20353E-3
MEAN_MOTION_DDOT = 0

CCSDS_OMM_VERS = 2.0
CREATION_DATE  = 
ORIGINATOR     = 

OBJECT_NAME    = SAKHACUBE-CHOLBON (RS18S)
OBJECT_ID      = 2025-313AU
CENTER_NAME    = EARTH
REF_FRAME      = TEME
TIME_SYSTEM    = UTC
MEAN_ELEMENT_THEORY = SGP/SGP4

EPOCH          = 2026-01-27T14:27:28.705248
MEAN_MOTION    = 15.21846689
ECCENTRICITY   = .00109399
INCLINATION    = 97.4088
RA_OF_ASC_NODE = 104.6040
ARG_OF_PERICENTER = 126.5579
MEAN_ANOMALY   = 233.6665

EPHEMERIS_TYPE = 0
CLASSIFICATION_TYPE = U
NORAD_CAT_ID   = 67290
ELEMENT_SET_NO = 999
REV_AT_EPOCH   = 457
BSTAR          = .72802896E-3
MEAN_MOTION_DOT = .16528E-3
MEAN_MOTION_DDOT = 0

CCSDS_OMM_VERS = 2.0
CREATION_DATE  = 
ORIGINATOR     = 

OBJECT_NAME    = QMR-KWT-2 (RS95S)
OBJECT_ID      = 2025-313AV
CENTER_NAME    = EARTH
REF_FRAME      = TEME
TIME_SYSTEM    = UTC
MEAN_ELEMENT_THEORY = SGP/SGP4

EPOCH          = 2026-01-27T14:25:24.951072
MEAN_MOTION    = 15.22043343
ECCENTRICITY   = .00107734
INCLINATION    = 97.4088
RA_OF_ASC_NODE = 104.6057
ARG_OF_PERICENTER = 126.5777
MEAN_ANOMALY   = 233.6452

EPHEMERIS_TYPE = 0
CLASSIFICATION_TYPE = U
NORAD_CAT_ID   = 67291
ELEMENT_SET_NO = 999
REV_AT_EPOCH   = 457
BSTAR          = .92383609E-3
MEAN_MOTION_DOT = .21125E-3
MEAN_MOTION_DDOT = 0

CCSDS_OMM_VERS = 2.0
CREATION_DATE  = 
ORIGINATOR     = 

OBJECT_NAME    = SITRO-AIS-64
OBJECT_ID      = 2025-313AW
CENTER_NAME    = EARTH
REF_FRAME      = TEME
TIME_SYSTEM    = UTC
MEAN_ELEMENT_THEORY = SGP/SGP4

EPOCH          = 2026-01-27T14:24:47.066400
MEAN_MOTION    = 15.21946698
ECCENTRICITY   = .00106135
INCLINATION    = 97.4092
RA_OF_ASC_NODE = 104.6082
ARG_OF_PERICENTER = 126.3928
MEAN_ANOMALY   = 233.8289

EPHEMERIS_TYPE = 0
CLASSIFICATION_TYPE = U
NORAD_CAT_ID   = 67292
ELEMENT_SET_NO = 999
REV_AT_EPOCH   = 457
BSTAR          = .7213224E-3
MEAN_MOTION_DOT = .16421E-3
MEAN_MOTION_DDOT = 0

